[{"OBJECT_NAME":"STARLINK-3540","OBJECT_ID":"2022-016F","EPOCH":"2026-03-09T22:31:05.700288","MEAN_MOTION":15.08830295,"ECCENTRICITY":0.00016137,"INCLINATION":53.2182,"RA_OF_ASC_NODE":328.082,"ARG_OF_PERICENTER":89.8823,"MEAN_ANOMALY":270.2354,"EPHEMERIS_TYPE":0,"CLASSIFICATION_TYPE":"U","NORAD_CAT_ID":51719,"ELEMENT_SET_NO":999,"REV_AT_EPOCH":22346,"BSTAR":6.0846431e-5,"MEAN_MOTION_DOT":6.8e-6,"MEAN_MOTION_DDOT":0},{"OBJECT_NAME":"COSMOS 249 DEB","OBJECT_ID":"1968-091BY","EPOCH":"2026-03-09T15:02:10.681728","MEAN_MOTION":13.99350738,"ECCENTRICITY":0.050522,"INCLINATION":62.8493,"RA_OF_ASC_NODE":140.5745,"ARG_OF_PERICENTER":190.7995,"MEAN_ANOMALY":168.1879,"EPHEMERIS_TYPE":0,"CLASSIFICATION_TYPE":"U","NORAD_CAT_ID":4008,"ELEMENT_SET_NO":999,"REV_AT_EPOCH":82676,"BSTAR":0.00082652,"MEAN_MOTION_DOT":3.549e-5,"MEAN_MOTION_DDOT":0}]
